[{"OBJECT_NAME":"IRIDIUM 152","OBJECT_ID":"2018-047D","EPOCH":"2026-04-27T00:45:02.242080","MEAN_MOTION":14.34217788,"ECCENTRICITY":0.0002214,"INCLINATION":86.3919,"RA_OF_ASC_NODE":109.7254,"ARG_OF_PERICENTER":91.9552,"MEAN_ANOMALY":268.1897,"EPHEMERIS_TYPE":0,"CLASSIFICATION_TYPE":"U","NORAD_CAT_ID":43479,"ELEMENT_SET_NO":999,"REV_AT_EPOCH":41515,"BSTAR":1.1949e-5,"MEAN_MOTION_DOT":5.3e-7,"MEAN_MOTION_DDOT":0},{"OBJECT_NAME":"IRIDIUM 147","OBJECT_ID":"2018-047E","EPOCH":"2026-04-27T00:54:10.245312","MEAN_MOTION":14.34217656,"ECCENTRICITY":0.0002347,"INCLINATION":86.3921,"RA_OF_ASC_NODE":109.7271,"ARG_OF_PERICENTER":86.8203,"MEAN_ANOMALY":273.3261,"EPHEMERIS_TYPE":0,"CLASSIFICATION_TYPE":"U","NORAD_CAT_ID":43480,"ELEMENT_SET_NO":999,"REV_AT_EPOCH":41515,"BSTAR":9.0692e-6,"MEAN_MOTION_DOT":4.5e-7,"MEAN_MOTION_DDOT":0},{"OBJECT_NAME":"IRIDIUM 110","OBJECT_ID":"2018-047F","EPOCH":"2026-04-27T01:03:18.085248","MEAN_MOTION":14.34217583,"ECCENTRICITY":0.000185,"INCLINATION":86.3929,"RA_OF_ASC_NODE":109.815,"ARG_OF_PERICENTER":95.4963,"MEAN_ANOMALY":264.6444,"EPHEMERIS_TYPE":0,"CLASSIFICATION_TYPE":"U","NORAD_CAT_ID":43481,"ELEMENT_SET_NO":999,"REV_AT_EPOCH":41514,"BSTAR":-2.6709e-6,"MEAN_MOTION_DOT":1.2e-7,"MEAN_MOTION_DDOT":0},{"OBJECT_NAME":"IRIDIUM 162","OBJECT_ID":"2018-047G","EPOCH":"2026-04-26T23:55:00.319008","MEAN_MOTION":14.43281561,"ECCENTRICITY":0.0002407,"INCLINATION":86.4444,"RA_OF_ASC_NODE":109.771,"ARG_OF_PERICENTER":91.6579,"MEAN_ANOMALY":268.4898,"EPHEMERIS_TYPE":0,"CLASSIFICATION_TYPE":"U","NORAD_CAT_ID":43482,"ELEMENT_SET_NO":999,"REV_AT_EPOCH":41774,"BSTAR":4.6549e-5,"MEAN_MOTION_DOT":1.77e-6,"MEAN_MOTION_DDOT":0},{"OBJECT_NAME":"IRIDIUM 160","OBJECT_ID":"2018-061A","EPOCH":"2026-04-26T20:24:22.482144","MEAN_MOTION":14.34217296,"ECCENTRICITY":0.00021255,"INCLINATION":86.394,"RA_OF_ASC_NODE":78.2592,"ARG_OF_PERICENTER":85.9938,"MEAN_ANOMALY":274.1501,"EPHEMERIS_TYPE":0,"CLASSIFICATION_TYPE":"U","NORAD_CAT_ID":43569,"ELEMENT_SET_NO":999,"REV_AT_EPOCH":40601,"BSTAR":8.015679e-6,"MEAN_MOTION_DOT":4.2e-7,"MEAN_MOTION_DDOT":0},{"OBJECT_NAME":"IRIDIUM 166","OBJECT_ID":"2018-061B","EPOCH":"2026-04-26T22:41:24.160128","MEAN_MOTION":14.34218312,"ECCENTRICITY":0.0002362,"INCLINATION":86.3939,"RA_OF_ASC_NODE":78.1705,"ARG_OF_PERICENTER":84.0666,"MEAN_ANOMALY":276.0798,"EPHEMERIS_TYPE":0,"CLASSIFICATION_TYPE":"U","NORAD_CAT_ID":43570,"ELEMENT_SET_NO":999,"REV_AT_EPOCH":40605,"BSTAR":8.7368e-5,"MEAN_MOTION_DOT":2.64e-6,"MEAN_MOTION_DDOT":0},{"OBJECT_NAME":"IRIDIUM 158","OBJECT_ID":"2018-061C","EPOCH":"2026-04-27T02:57:06.479424","MEAN_MOTION":14.342175,"ECCENTRICITY":0.000217,"INCLINATION":86.3941,"RA_OF_ASC_NODE":78.1065,"ARG_OF_PERICENTER":89.4268,"MEAN_ANOMALY":270.7177,"EPHEMERIS_TYPE":0,"CLASSIFICATION_TYPE":"U","NORAD_CAT_ID":43571,"ELEMENT_SET_NO":999,"REV_AT_EPOCH":40604,"BSTAR":-3.1408e-6,"MEAN_MOTION_DOT":1.1e-7,"MEAN_MOTION_DDOT":0},{"OBJECT_NAME":"IRIDIUM 165","OBJECT_ID":"2018-061D","EPOCH":"2026-04-27T03:33:38.498400","MEAN_MOTION":14.34217622,"ECCENTRICITY":0.0002349,"INCLINATION":86.394,"RA_OF_ASC_NODE":78.141,"ARG_OF_PERICENTER":83.826,"MEAN_ANOMALY":276.3203,"EPHEMERIS_TYPE":0,"CLASSIFICATION_TYPE":"U","NORAD_CAT_ID":43572,"ELEMENT_SET_NO":999,"REV_AT_EPOCH":40607,"BSTAR":5.256e-6,"MEAN_MOTION_DOT":3.5e-7,"MEAN_MOTION_DDOT":0},{"OBJECT_NAME":"IRIDIUM 155","OBJECT_ID":"2018-061E","EPOCH":"2026-04-27T04:19:18.497280","MEAN_MOTION":14.34217697,"ECCENTRICITY":0.0002396,"INCLINATION":86.3937,"RA_OF_ASC_NODE":77.9992,"ARG_OF_PERICENTER":87.7892,"MEAN_ANOMALY":272.3578,"EPHEMERIS_TYPE":0,"CLASSIFICATION_TYPE":"U","NORAD_CAT_ID":43573,"ELEMENT_SET_NO":999,"REV_AT_EPOCH":40604,"BSTAR":1.5958e-5,"MEAN_MOTION_DOT":6.4e-7,"MEAN_MOTION_DDOT":0},{"OBJECT_NAME":"IRIDIUM 154","OBJECT_ID":"2018-061F","EPOCH":"2026-04-27T03:51:54.476352","MEAN_MOTION":14.34217749,"ECCENTRICITY":0.0002317,"INCLINATION":86.394,"RA_OF_ASC_NODE":78.1383,"ARG_OF_PERICENTER":82.7824,"MEAN_ANOMALY":277.3635,"EPHEMERIS_TYPE":0,"CLASSIFICATION_TYPE":"U","NORAD_CAT_ID":43574,"ELEMENT_SET_NO":999,"REV_AT_EPOCH":40609,"BSTAR":2.2552e-5,"MEAN_MOTION_DOT":8.3e-7,"MEAN_MOTION_DDOT":0},{"OBJECT_NAME":"IRIDIUM 163","OBJECT_ID":"2018-061G","EPOCH":"2026-04-27T03:24:30.415680","MEAN_MOTION":14.34218827,"ECCENTRICITY":0.0002243,"INCLINATION":86.3938,"RA_OF_ASC_NODE":78.0631,"ARG_OF_PERICENTER":89.2333,"MEAN_ANOMALY":270.912,"EPHEMERIS_TYPE":0,"CLASSIFICATION_TYPE":"U","NORAD_CAT_ID":43575,"ELEMENT_SET_NO":999,"REV_AT_EPOCH":40606,"BSTAR":7.1697e-5,"MEAN_MOTION_DOT":2.21e-6,"MEAN_MOTION_DDOT":0},{"OBJECT_NAME":"IRIDIUM 156","OBJECT_ID":"2018-061H","EPOCH":"2026-04-27T04:28:26.529024","MEAN_MOTION":14.34217635,"ECCENTRICITY":0.0002423,"INCLINATION":86.3939,"RA_OF_ASC_NODE":78.0519,"ARG_OF_PERICENTER":86.8507,"MEAN_ANOMALY":273.2966,"EPHEMERIS_TYPE":0,"CLASSIFICATION_TYPE":"U","NORAD_CAT_ID":43576,"ELEMENT_SET_NO":999,"REV_AT_EPOCH":40606,"BSTAR":8.4429e-6,"MEAN_MOTION_DOT":4.3e-7,"MEAN_MOTION_DDOT":0},{"OBJECT_NAME":"IRIDIUM 164","OBJECT_ID":"2018-061J","EPOCH":"2026-04-27T04:01:02.470944","MEAN_MOTION":14.34216929,"ECCENTRICITY":0.0002238,"INCLINATION":86.394,"RA_OF_ASC_NODE":78.0992,"ARG_OF_PERICENTER":81.1745,"MEAN_ANOMALY":278.9704,"EPHEMERIS_TYPE":0,"CLASSIFICATION_TYPE":"U","NORAD_CAT_ID":43577,"ELEMENT_SET_NO":999,"REV_AT_EPOCH":40610,"BSTAR":4.8657e-5,"MEAN_MOTION_DOT":1.56e-6,"MEAN_MOTION_DDOT":0},{"OBJECT_NAME":"IRIDIUM 159","OBJECT_ID":"2018-061K","EPOCH":"2026-04-27T03:15:22.448736","MEAN_MOTION":14.3421753,"ECCENTRICITY":0.0002049,"INCLINATION":86.3939,"RA_OF_ASC_NODE":78.0507,"ARG_OF_PERICENTER":87.3857,"MEAN_ANOMALY":272.7573,"EPHEMERIS_TYPE":0,"CLASSIFICATION_TYPE":"U","NORAD_CAT_ID":43578,"ELEMENT_SET_NO":999,"REV_AT_EPOCH":40606,"BSTAR":-1.5597e-5,"MEAN_MOTION_DOT":-2.4e-7,"MEAN_MOTION_DDOT":0},{"OBJECT_NAME":"IRIDIUM 180","OBJECT_ID":"2019-002A","EPOCH":"2026-04-27T04:55:06.830688","MEAN_MOTION":14.34218575,"ECCENTRICITY":0.0002088,"INCLINATION":86.4014,"RA_OF_ASC_NODE":14.9032,"ARG_OF_PERICENTER":85.7328,"MEAN_ANOMALY":274.4107,"EPHEMERIS_TYPE":0,"CLASSIFICATION_TYPE":"U","NORAD_CAT_ID":43922,"ELEMENT_SET_NO":999,"REV_AT_EPOCH":38168,"BSTAR":6.036e-5,"MEAN_MOTION_DOT":1.89e-6,"MEAN_MOTION_DDOT":0},{"OBJECT_NAME":"IRIDIUM 176","OBJECT_ID":"2019-002B","EPOCH":"2026-04-27T04:23:48.308064","MEAN_MOTION":14.72259709,"ECCENTRICITY":0.0002474,"INCLINATION":86.6134,"RA_OF_ASC_NODE":14.8631,"ARG_OF_PERICENTER":82.1181,"MEAN_ANOMALY":278.0317,"EPHEMERIS_TYPE":0,"CLASSIFICATION_TYPE":"U","NORAD_CAT_ID":43923,"ELEMENT_SET_NO":999,"REV_AT_EPOCH":39174,"BSTAR":0.00013169,"MEAN_MOTION_DOT":8.55e-6,"MEAN_MOTION_DDOT":0},{"OBJECT_NAME":"IRIDIUM 168","OBJECT_ID":"2019-002C","EPOCH":"2026-04-27T04:45:59.908320","MEAN_MOTION":14.3422061,"ECCENTRICITY":0.0002148,"INCLINATION":86.4017,"RA_OF_ASC_NODE":14.9817,"ARG_OF_PERICENTER":84.5396,"MEAN_ANOMALY":275.6044,"EPHEMERIS_TYPE":0,"CLASSIFICATION_TYPE":"U","NORAD_CAT_ID":43924,"ELEMENT_SET_NO":999,"REV_AT_EPOCH":38166,"BSTAR":8.6833e-5,"MEAN_MOTION_DOT":2.63e-6,"MEAN_MOTION_DDOT":0}]
