IRIDIUM 152             
1 43479U 18047D   26117.03127595  .00000053  00000+0  11949-4 0  9991
2 43479  86.3919 109.7254 0002214  91.9552 268.1897 14.34217788415155
IRIDIUM 147             
1 43480U 18047E   26117.03761858  .00000045  00000+0  90692-5 0  9993
2 43480  86.3921 109.7271 0002347  86.8203 273.3261 14.34217656415159
IRIDIUM 110             
1 43481U 18047F   26117.04395932  .00000012  00000+0 -26709-5 0  9994
2 43481  86.3929 109.8150 0001850  95.4963 264.6444 14.34217583415146
IRIDIUM 162             
1 43482U 18047G   26116.99653147  .00000177  00000+0  46549-4 0  9997
2 43482  86.4444 109.7710 0002407  91.6579 268.4898 14.43281561417741
IRIDIUM 160             
1 43569U 18061A   26116.85026021  .00000042  00000+0  80157-5 0  9994
2 43569  86.3940  78.2592 0002125  85.9938 274.1501 14.34217296406014
IRIDIUM 166             
1 43570U 18061B   26116.94541852  .00000264  00000+0  87368-4 0  9996
2 43570  86.3939  78.1705 0002362  84.0666 276.0798 14.34218312406053
IRIDIUM 158             
1 43571U 18061C   26117.12299166  .00000011  00000+0 -31408-5 0  9992
2 43571  86.3941  78.1065 0002170  89.4268 270.7177 14.34217500406049
IRIDIUM 165             
1 43572U 18061D   26117.14836225  .00000035  00000+0  52560-5 0  9995
2 43572  86.3940  78.1410 0002349  83.8260 276.3203 14.34217622406071
IRIDIUM 155             
1 43573U 18061E   26117.18007520  .00000064  00000+0  15958-4 0  9999
2 43573  86.3937  77.9992 0002396  87.7892 272.3578 14.34217697406046
IRIDIUM 154             
1 43574U 18061F   26117.16104718  .00000083  00000+0  22552-4 0  9994
2 43574  86.3940  78.1383 0002317  82.7824 277.3635 14.34217749406093
IRIDIUM 163             
1 43575U 18061G   26117.14201870  .00000221  00000+0  71697-4 0  9998
2 43575  86.3938  78.0631 0002243  89.2333 270.9120 14.34218827406064
IRIDIUM 156             
1 43576U 18061H   26117.18641816  .00000043  00000+0  84429-5 0  9991
2 43576  86.3939  78.0519 0002423  86.8507 273.2966 14.34217635406067
IRIDIUM 164             
1 43577U 18061J   26117.16738971  .00000156  00000+0  48657-4 0  9996
2 43577  86.3940  78.0992 0002238  81.1745 278.9704 14.34216929406103
IRIDIUM 159             
1 43578U 18061K   26117.13567649 -.00000024  00000+0 -15597-4 0  9999
2 43578  86.3939  78.0507 0002049  87.3857 272.7573 14.34217530406066
IRIDIUM 180             
1 43922U 19002A   26117.20494017  .00000189  00000+0  60360-4 0  9992
2 43922  86.4014  14.9032 0002088  85.7328 274.4107 14.34218575381686
IRIDIUM 176             
1 43923U 19002B   26117.18319801  .00000855  00000+0  13169-3 0  9991
2 43923  86.6134  14.8631 0002474  82.1181 278.0317 14.72259709391740
IRIDIUM 168             
1 43924U 19002C   26117.19861005  .00000263  00000+0  86833-4 0  9993
2 43924  86.4017  14.9817 0002148  84.5396 275.6044 14.34220610381665
